start=new Date('2022-04-27T00:00:00.000Z').valueOf();
sats=[{"RA_OF_ASC_NODE":"40.0400","ELEMENT_SET_NO":"999","REF_FRAME":"TEME","PERIAPSIS":"546.195","COUNTRY_CODE":"US","CLASSIFICATION_TYPE":"U","RCS_SIZE":"LARGE","CENTER_NAME":"EARTH","SITE":"AFETR","OBJECT_ID":"2020-070B","LAUNCH_DATE":"2020-10-06","ECCENTRICITY":"0.00014670","MEAN_ANOMALY":"293.7815","FILE":"3417474","APOAPSIS":"548.227","INCLINATION":"53.0557","BSTAR":"0.00016561000000","MEAN_MOTION_DOT":"0.00002186","EPHEMERIS_TYPE":"0","MEAN_MOTION_DDOT":"0.0000000000000","EPOCH":"2022-04-26T15:19:15.407328","SEMIMAJOR_AXIS":"6925.346","DECAY_DATE":null,"TIME_SYSTEM":"UTC","NORAD_CAT_ID":"46533","TLE_LINE1":"1 46533U 20070B   22116.63837277  .00002186  00000-0  16561-3 0  9994","PERIOD":"95.592","ARG_OF_PERICENTER":"66.3328","MEAN_ELEMENT_THEORY":"SGP4","GP_ID":"202109622","OBJECT_NAME":"STARLINK-1648","OBJECT_TYPE":"PAYLOAD","MEAN_MOTION":"15.06400731","REV_AT_EPOCH":"8652","TLE_LINE2":"2 46533  53.0557  40.0400 0001467  66.3328 293.7815 15.06400731 86525"},{"OBJECT_ID":"2020-070C","MEAN_ANOMALY":"304.2706","ECCENTRICITY":"0.00015890","LAUNCH_DATE":"2020-10-06","FILE":"3417035","APOAPSIS":"548.346","INCLINATION":"53.0578","BSTAR":"0.00002436400000","CENTER_NAME":"EARTH","SITE":"AFETR","REF_FRAME":"TEME","CLASSIFICATION_TYPE":"U","RCS_SIZE":"LARGE","COUNTRY_CODE":"US","PERIAPSIS":"546.146","RA_OF_ASC_NODE":"41.6310","ELEMENT_SET_NO":"999","OBJECT_NAME":"STARLINK-1659","OBJECT_TYPE":"PAYLOAD","REV_AT_EPOCH":"8647","MEAN_MOTION":"15.06389406","TLE_LINE2":"2 46534  53.0578  41.6310 0001589  55.8433 304.2706 15.06389406 86477","ARG_OF_PERICENTER":"55.8433","PERIOD":"95.593","NORAD_CAT_ID":"46534","TLE_LINE1":"1 46534U 20070C   22116.28821828  .00000081  00000-0  24364-4 0  9994","GP_ID":"202074964","MEAN_ELEMENT_THEORY":"SGP4","EPOCH":"2022-04-26T06:55:02.059392","DECAY_DATE":null,"SEMIMAJOR_AXIS":"6925.381","TIME_SYSTEM":"UTC","MEAN_MOTION_DOT":"0.00000081","MEAN_MOTION_DDOT":"0.0000000000000","EPHEMERIS_TYPE":"0"},{"TLE_LINE2":"2 46535  53.0551  38.9957 0001636  57.6579 302.4568 15.06406661 86557","REV_AT_EPOCH":"8655","MEAN_MOTION":"15.06406661","OBJECT_TYPE":"PAYLOAD","OBJECT_NAME":"STARLINK-1663","MEAN_ELEMENT_THEORY":"SGP4","GP_ID":"202111129","ARG_OF_PERICENTER":"57.6579","PERIOD":"95.592","NORAD_CAT_ID":"46535","TLE_LINE1":"1 46535U 20070D   22116.87427448  .00004992  00000-0  35371-3 0  9994","TIME_SYSTEM":"UTC","DECAY_DATE":null,"SEMIMAJOR_AXIS":"6925.328","EPOCH":"2022-04-26T20:58:57.315072","MEAN_MOTION_DDOT":"0.0000000000000","EPHEMERIS_TYPE":"0","MEAN_MOTION_DOT":"0.00004992","BSTAR":"0.00035371000000","INCLINATION":"53.0551","FILE":"3417474","APOAPSIS":"548.326","ECCENTRICITY":"0.00016360","MEAN_ANOMALY":"302.4568","LAUNCH_DATE":"2020-10-06","OBJECT_ID":"2020-070D","SITE":"AFETR","CENTER_NAME":"EARTH","RCS_SIZE":"LARGE","CLASSIFICATION_TYPE":"U","PERIAPSIS":"546.060","COUNTRY_CODE":"US","REF_FRAME":"TEME","ELEMENT_SET_NO":"999","RA_OF_ASC_NODE":"38.9957"},{"SITE":"AFETR","CENTER_NAME":"EARTH","FILE":"3417035","APOAPSIS":"548.182","INCLINATION":"53.0553","BSTAR":"0.00004101500000","OBJECT_ID":"2020-070F","MEAN_ANOMALY":"285.9194","ECCENTRICITY":"0.00013620","LAUNCH_DATE":"2020-10-06","RA_OF_ASC_NODE":"41.5460","ELEMENT_SET_NO":"999","CLASSIFICATION_TYPE":"U","RCS_SIZE":"LARGE","PERIAPSIS":"546.295","COUNTRY_CODE":"US","REF_FRAME":"TEME","GP_ID":"202073963","MEAN_ELEMENT_THEORY":"SGP4","ARG_OF_PERICENTER":"74.1945","PERIOD":"95.593","TLE_LINE1":"1 46537U 20070F   22116.30295837  .00000329  00000-0  41015-4 0  9992","NORAD_CAT_ID":"46537","REV_AT_EPOCH":"8647","MEAN_MOTION":"15.06391932","TLE_LINE2":"2 46537  53.0553  41.5460 0001362  74.1945 285.9194 15.06391932 86472","OBJECT_NAME":"STARLINK-1672","OBJECT_TYPE":"PAYLOAD","EPHEMERIS_TYPE":"0","MEAN_MOTION_DDOT":"0.0000000000000","MEAN_MOTION_DOT":"0.00000329","DECAY_DATE":null,"SEMIMAJOR_AXIS":"6925.373","TIME_SYSTEM":"UTC","EPOCH":"2022-04-26T07:16:15.603168"},{"SITE":"AFETR","CENTER_NAME":"EARTH","INCLINATION":"53.0559","BSTAR":"0.00000231800000","APOAPSIS":"548.279","FILE":"3417035","MEAN_ANOMALY":"306.8717","ECCENTRICITY":"0.00015310","LAUNCH_DATE":"2020-10-06","OBJECT_ID":"2020-070G","ELEMENT_SET_NO":"999","RA_OF_ASC_NODE":"40.7583","CLASSIFICATION_TYPE":"U","RCS_SIZE":"LARGE","COUNTRY_CODE":"US","PERIAPSIS":"546.158","REF_FRAME":"TEME","MEAN_ELEMENT_THEORY":"SGP4","GP_ID":"202074213","PERIOD":"95.592","ARG_OF_PERICENTER":"53.2412","TLE_LINE1":"1 46538U 20070G   22116.47988121 -.00000247  00000-0  23180-5 0  9990","NORAD_CAT_ID":"46538","TLE_LINE2":"2 46538  53.0559  40.7583 0001531  53.2412 306.8717 15.06398332 86498","REV_AT_EPOCH":"8649","MEAN_MOTION":"15.06398332","OBJECT_TYPE":"PAYLOAD","OBJECT_NAME":"STARLINK-1678","EPHEMERIS_TYPE":"0","MEAN_MOTION_DDOT":"0.0000000000000","MEAN_MOTION_DOT":"-0.00000247","TIME_SYSTEM":"UTC","DECAY_DATE":null,"SEMIMAJOR_AXIS":"6925.354","EPOCH":"2022-04-26T11:31:01.736544"},{"SITE":"AFETR","CENTER_NAME":"EARTH","FILE":"3417474","APOAPSIS":"548.250","BSTAR":"0.00029279000000","INCLINATION":"53.0559","OBJECT_ID":"2020-070K","LAUNCH_DATE":"2020-10-06","MEAN_ANOMALY":"272.7391","ECCENTRICITY":"0.00015160","RA_OF_ASC_NODE":"19.0762","ELEMENT_SET_NO":"999","PERIAPSIS":"546.151","COUNTRY_CODE":"US","RCS_SIZE":"LARGE","CLASSIFICATION_TYPE":"U","REF_FRAME":"TEME","MEAN_ELEMENT_THEORY":"SGP4","GP_ID":"202110377","NORAD_CAT_ID":"46541","TLE_LINE1":"1 46541U 20070K   22116.85769322  .00004083  00000-0  29279-3 0  9990","ARG_OF_PERICENTER":"87.3771","PERIOD":"95.592","MEAN_MOTION":"15.06404254","REV_AT_EPOCH":"8683","TLE_LINE2":"2 46541  53.0559  19.0762 0001516  87.3771 272.7391 15.06404254 86837","OBJECT_NAME":"STARLINK-1687","OBJECT_TYPE":"PAYLOAD","MEAN_MOTION_DDOT":"0.0000000000000","EPHEMERIS_TYPE":"0","MEAN_MOTION_DOT":"0.00004083","SEMIMAJOR_AXIS":"6925.336","DECAY_DATE":null,"TIME_SYSTEM":"UTC","EPOCH":"2022-04-26T20:35:04.694208"},{"TIME_SYSTEM":"UTC","DECAY_DATE":null,"SEMIMAJOR_AXIS":"6925.363","EPOCH":"2022-04-26T04:42:20.044512","MEAN_MOTION_DDOT":"0.0000000000000","EPHEMERIS_TYPE":"0","MEAN_MOTION_DOT":"0.00000996","TLE_LINE2":"2 46542  53.0574  42.0362 0001201  52.6793 307.4305 15.06395348 86459","REV_AT_EPOCH":"8645","MEAN_MOTION":"15.06395348","OBJECT_TYPE":"PAYLOAD","OBJECT_NAME":"STARLINK-1692","MEAN_ELEMENT_THEORY":"SGP4","GP_ID":"202075716","ARG_OF_PERICENTER":"52.6793","PERIOD":"95.592","NORAD_CAT_ID":"46542","TLE_LINE1":"1 46542U 20070L   22116.19606533  .00000996  00000-0  85732-4 0  9998","RCS_SIZE":"LARGE","CLASSIFICATION_TYPE":"U","PERIAPSIS":"546.396","COUNTRY_CODE":"US","REF_FRAME":"TEME","ELEMENT_SET_NO":"999","RA_OF_ASC_NODE":"42.0362","INCLINATION":"53.0574","BSTAR":"0.00008573200000","FILE":"3417035","APOAPSIS":"548.060","ECCENTRICITY":"0.00012010","MEAN_ANOMALY":"307.4305","LAUNCH_DATE":"2020-10-06","OBJECT_ID":"2020-070L","SITE":"AFETR","CENTER_NAME":"EARTH"},{"REV_AT_EPOCH":"8655","MEAN_MOTION":"15.06403190","TLE_LINE2":"2 46543  53.0549  39.1176 0001722  51.9523 308.1622 15.06403190 86559","OBJECT_NAME":"STARLINK-1693","OBJECT_TYPE":"PAYLOAD","GP_ID":"202109376","MEAN_ELEMENT_THEORY":"SGP4","ARG_OF_PERICENTER":"51.9523","PERIOD":"95.592","TLE_LINE1":"1 46543U 20070M   22116.84479071  .00005446  00000-0  38418-3 0  9999","NORAD_CAT_ID":"46543","DECAY_DATE":null,"SEMIMAJOR_AXIS":"6925.339","TIME_SYSTEM":"UTC","EPOCH":"2022-04-26T20:16:29.917344","MEAN_MOTION_DDOT":"0.0000000000000","EPHEMERIS_TYPE":"0","MEAN_MOTION_DOT":"0.00005446","APOAPSIS":"548.396","FILE":"3417474","BSTAR":"0.00038418000000","INCLINATION":"53.0549","OBJECT_ID":"2020-070M","MEAN_ANOMALY":"308.1622","ECCENTRICITY":"0.00017220","LAUNCH_DATE":"2020-10-06","SITE":"AFETR","CENTER_NAME":"EARTH","RCS_SIZE":"LARGE","CLASSIFICATION_TYPE":"U","PERIAPSIS":"546.011","COUNTRY_CODE":"US","REF_FRAME":"TEME","RA_OF_ASC_NODE":"39.1176","ELEMENT_SET_NO":"999"},{"RA_OF_ASC_NODE":"23.8548","ELEMENT_SET_NO":"999","COUNTRY_CODE":"US","PERIAPSIS":"546.021","CLASSIFICATION_TYPE":"U","RCS_SIZE":"LARGE","REF_FRAME":"TEME","SITE":"AFETR","CENTER_NAME":"EARTH","FILE":"3417474","APOAPSIS":"548.395","BSTAR":"0.00019543000000","INCLINATION":"53.0566","OBJECT_ID":"2020-070N","LAUNCH_DATE":"2020-10-06","ECCENTRICITY":"0.00017140","MEAN_ANOMALY":"288.8279","MEAN_MOTION_DDOT":"0.0000000000000","EPHEMERIS_TYPE":"0","MEAN_MOTION_DOT":"0.00002631","SEMIMAJOR_AXIS":"6925.343","DECAY_DATE":null,"TIME_SYSTEM":"UTC","EPOCH":"2022-04-26T21:46:03.925632","GP_ID":"202109623","MEAN_ELEMENT_THEORY":"SGP4","TLE_LINE1":"1 46544U 20070N   22116.90698988  .00002631  00000-0  19543-3 0  9998","NORAD_CAT_ID":"46544","PERIOD":"95.592","ARG_OF_PERICENTER":"71.2896","MEAN_MOTION":"15.06401721","REV_AT_EPOCH":"8677","TLE_LINE2":"2 46544  53.0566  23.8548 0001714  71.2896 288.8279 15.06401721 86775","OBJECT_NAME":"STARLINK-1694","OBJECT_TYPE":"PAYLOAD"},{"GP_ID":"202074965","MEAN_ELEMENT_THEORY":"SGP4","PERIOD":"95.593","ARG_OF_PERICENTER":"69.4539","TLE_LINE1":"1 46545U 20070P   22116.21819187  .00000777  00000-0  71061-4 0  9992","NORAD_CAT_ID":"46545","REV_AT_EPOCH":"8645","MEAN_MOTION":"15.06381661","TLE_LINE2":"2 46545  53.0552  41.9530 0001470  69.4539 290.6607 15.06381661 86456","OBJECT_NAME":"STARLINK-1696","OBJECT_TYPE":"PAYLOAD","EPHEMERIS_TYPE":"0","MEAN_MOTION_DDOT":"0.0000000000000","MEAN_MOTION_DOT":"0.00000777","DECAY_DATE":null,"SEMIMAJOR_AXIS":"6925.405","TIME_SYSTEM":"UTC","EPOCH":"2022-04-26T05:14:11.777568","SITE":"AFETR","CENTER_NAME":"EARTH","APOAPSIS":"548.288","FILE":"3417035","INCLINATION":"53.0552","BSTAR":"0.00007106100000","OBJECT_ID":"2020-070P","MEAN_ANOMALY":"290.6607","ECCENTRICITY":"0.00014700","LAUNCH_DATE":"2020-10-06","RA_OF_ASC_NODE":"41.9530","ELEMENT_SET_NO":"999","RCS_SIZE":"LARGE","CLASSIFICATION_TYPE":"U","PERIAPSIS":"546.252","COUNTRY_CODE":"US","REF_FRAME":"TEME"}];
